COSMOS_2463
1 36519U 10017A   21182.21307255  .00000075  00000-0  65796-4 0  9991
2 36519  82.9604 140.8062 0037507 115.9951 244.5076 13.71457242559642
-400
FORMOSAT-3_FM6
1 29047U 06011A   21181.89939245  .00000161  00000-0  79227-4 0  9991
2 29047  71.9791  57.5131 0049365 130.1817 230.3657 14.28823503795359
0
FORMOSAT-3_FM1
1 29048U 06011B   21181.92721563  .00000078  00000-0  46986-4 0  9991
2 29048  71.9671 327.9211 0042306  87.6835 272.9145 14.28784061797849
0
FORMOSAT-3_FM5
1 29049U 06011C   21182.18776891  .00000040  00000-0  31806-4 0  9999
2 29049  72.0197 141.1953 0033299 111.8556 248.6128 14.28864862793682
0
FORMOSAT-3_FM3
1 29050U 06011D   21182.50673377  .00000099  00000-0  31155-4 0  9993
2 29050  72.0156 247.8535 0050179 353.6547   6.3964 14.59079622811719
0
FORMOSAT-3_FM4
1 29051U 06011E   21182.03858020  .00000097  00000-0  53408-4 0  9995
2 29051  72.0055  42.8226 0068557 349.0218  10.9418 14.28897821796263
0
FORMOSAT-3_FM2
1 29052U 06011F   21181.87053143  .00000088  00000-0  50409-4 0  9998
2 29052  72.0344 118.4997 0038601  68.7746 291.7507 14.29008038793718
0
CASSIOPE
1 39265U 13055A   21182.54661918  .00002622  00000-0  73653-4 0  9993
2 39265  80.9677 277.2743 0647455 272.4554  80.2706 14.32325324401991
80
